LANDSAT 9               
1 49260U 21088A   23186.90909026  .00000406  00000+0  10032-3 0  9993
2 49260  98.2292 256.5744 0001154  96.1004 264.0326 14.57099837 94110
